STARLINK-5986           
1 56452U 23064E   26068.63086536  .00000127  00000+0  18456-4 0  9993
2 56452  70.0005 144.7536 0003076 269.7649  90.3157 14.98329662155236
ICEYE-X40               
1 60549U 24149CK  26068.75921699  .00003253  00000+0  28352-3 0  9999
2 60549  97.6865 146.8579 0005983  65.2061 294.9783 14.97556326 85195
